[
    {
        "OBJECT_NAME": "GSAT0224 (GALILEO 28)",
        "OBJECT_ID": "2021-116B",
        "EPOCH": "2025-05-03T02:01:23.869920",
        "MEAN_MOTION": 1.70475646,
        "ECCENTRICITY": 3.01e-05,
        "INCLINATION": 57.2684,
        "RA_OF_ASC_NODE": 352.7429,
        "ARG_OF_PERICENTER": 26.0404,
        "MEAN_ANOMALY": 157.1405,
        "EPHEMERIS_TYPE": 0,
        "CLASSIFICATION_TYPE": "U",
        "NORAD_CAT_ID": 49810,
        "ELEMENT_SET_NO": 999,
        "REV_AT_EPOCH": 2120,
        "BSTAR": 0,
        "MEAN_MOTION_DOT": -1e-06,
        "MEAN_MOTION_DDOT": 0
    },
    {
        "OBJECT_NAME": "GSAT0225 (GALILEO 29)",
        "OBJECT_ID": "2024-079A",
        "EPOCH": "2025-05-02T12:03:28.486656",
        "MEAN_MOTION": 1.70474495,
        "ECCENTRICITY": 0.000293,
        "INCLINATION": 54.8707,
        "RA_OF_ASC_NODE": 112.5671,
        "ARG_OF_PERICENTER": 264.6216,
        "MEAN_ANOMALY": 273.4669,
        "EPHEMERIS_TYPE": 0,
        "CLASSIFICATION_TYPE": "U",
        "NORAD_CAT_ID": 59598,
        "ELEMENT_SET_NO": 999,
        "REV_AT_EPOCH": 631,
        "BSTAR": 0,
        "MEAN_MOTION_DOT": 3.7e-07,
        "MEAN_MOTION_DDOT": 0
    },
    {
        "OBJECT_NAME": "GSAT0227 (GALILEO 30)",
        "OBJECT_ID": "2024-079C",
        "EPOCH": "2025-05-02T09:29:35.529504",
        "MEAN_MOTION": 1.70474469,
        "ECCENTRICITY": 6.2e-05,
        "INCLINATION": 54.8655,
        "RA_OF_ASC_NODE": 112.5704,
        "ARG_OF_PERICENTER": 341.4651,
        "MEAN_ANOMALY": 18.5154,
        "EPHEMERIS_TYPE": 0,
        "CLASSIFICATION_TYPE": "U",
        "NORAD_CAT_ID": 59600,
        "ELEMENT_SET_NO": 999,
        "REV_AT_EPOCH": 636,
        "BSTAR": 0,
        "MEAN_MOTION_DOT": 3.7e-07,
        "MEAN_MOTION_DDOT": 0
    },
    {
        "OBJECT_NAME": "GSAT0232 (GALILEO 32)",
        "OBJECT_ID": "2024-167A",
        "EPOCH": "2025-05-02T00:14:43.319904",
        "MEAN_MOTION": 1.7047422,
        "ECCENTRICITY": 0.0003741,
        "INCLINATION": 55.3198,
        "RA_OF_ASC_NODE": 232.5938,
        "ARG_OF_PERICENTER": 205.9725,
        "MEAN_ANOMALY": 112.5853,
        "EPHEMERIS_TYPE": 0,
        "CLASSIFICATION_TYPE": "U",
        "NORAD_CAT_ID": 61182,
        "ELEMENT_SET_NO": 999,
        "REV_AT_EPOCH": 386,
        "BSTAR": 0,
        "MEAN_MOTION_DOT": -1.8e-07,
        "MEAN_MOTION_DDOT": 0
    },
    {
        "OBJECT_NAME": "GSAT0226 (GALILEO 31)",
        "OBJECT_ID": "2024-167B",
        "EPOCH": "2025-05-01T21:21:12.145824",
        "MEAN_MOTION": 1.70474315,
        "ECCENTRICITY": 0.0002024,
        "INCLINATION": 55.3187,
        "RA_OF_ASC_NODE": 232.6028,
        "ARG_OF_PERICENTER": 176.4355,
        "MEAN_ANOMALY": 180.7419,
        "EPHEMERIS_TYPE": 0,
        "CLASSIFICATION_TYPE": "U",
        "NORAD_CAT_ID": 61183,
        "ELEMENT_SET_NO": 999,
        "REV_AT_EPOCH": 383,
        "BSTAR": 0,
        "MEAN_MOTION_DOT": -1.8e-07,
        "MEAN_MOTION_DDOT": 0
    }
]