GSAT0224 (GALILEO 28)   
1 49810U 21116B   25123.08430405 -.00000100  00000+0  00000+0 0  9990
2 49810  57.2684 352.7429 0000301  26.0404 157.1405  1.70475646 21206
GSAT0225 (GALILEO 29)   
1 59598U 24079A   25122.50241304  .00000037  00000+0  00000+0 0  9997
2 59598  54.8707 112.5671 0002930 264.6216 273.4669  1.70474495  6311
GSAT0227 (GALILEO 30)   
1 59600U 24079C   25122.39555011  .00000037  00000+0  00000+0 0  9991
2 59600  54.8655 112.5704 0000620 341.4651  18.5154  1.70474469  6368
GSAT0232 (GALILEO 32)   
1 61182U 24167A   25122.01022361 -.00000018  00000+0  00000+0 0  9993
2 61182  55.3198 232.5938 0003741 205.9725 112.5853  1.70474220  3867
GSAT0226 (GALILEO 31)   
1 61183U 24167B   25121.88972391 -.00000018  00000+0  00000+0 0  9995
2 61183  55.3187 232.6028 0002024 176.4355 180.7419  1.70474315  3838
